      2.10          N: GNSS NAV DATA                        RINEX VERSION / TYPE
fic2rin                                 05/22/2022 00:17:31 PGM / RUN BY / DATE
                                                            END OF HEADER
18 22  5 22  0  0  0.0  .163802877069D-03 -.102318153949D-10  .000000000000D+00
     .500000000000D+01  .248437500000D+02  .444339937113D-08 -.152662995077D+01
     .113248825073D-05  .229968363419D-02  .387430191040D-05  .515373532677D+04
     .000000000000D+00  .670552253723D-07  .262813269367D+01 -.186264514923D-07
     .971718506970D+00  .311750000000D+03  .301336511464D+01 -.821498504424D-08
     .215723271454D-09  .100000000000D+01  .221100000000D+04  .000000000000D+00
     .240000000000D+01  .000000000000D+00 -.838190317154D-08  .773000000000D+03
    -.720000000000D+04  .400000000000D+01
14 22  5 22  0  0  0.0 -.109261833131D-03 -.147792889038D-11  .000000000000D+00
     .176000000000D+03  .256562500000D+02  .470341020163D-08  .309596770142D+01
     .146217644215D-05  .187932909466D-02  .762939453125D-05  .515365483475D+04
     .000000000000D+00 -.745058059692D-08  .551890017646D+00 -.372529029846D-07
     .952895881744D+00  .226906250000D+03  .310725537398D+01 -.809355141462D-08
    -.298226708054D-09  .100000000000D+01  .221100000000D+04  .000000000000D+00
     .240000000000D+01  .000000000000D+00 -.791624188423D-08  .432000000000D+03
    -.720000000000D+04  .400000000000D+01
11 22  5 22  0  0  0.0 -.221831724048D-04  .420641299570D-11  .000000000000D+00
     .340000000000D+02  .240312500000D+02  .470376735936D-08  .308076858969D+00
     .132620334625D-05  .382313621230D-03  .414066016674D-05  .515357832909D+04
     .000000000000D+00 -.502914190292D-07  .266326238041D+01  .223517417908D-07
     .963095795709D+00  .301093750000D+03  .280101496289D+01 -.828070206734D-08
     .218937691062D-09  .100000000000D+01  .221100000000D+04  .000000000000D+00
     .240000000000D+01  .630000000000D+02 -.838190317154D-08  .290000000000D+03
    -.720000000000D+04  .400000000000D+01
28 22  5 22  0  0  0.0  .353657174855D-03 -.716227077646D-11  .000000000000D+00
     .220000000000D+02  .200000000000D+02  .445732852277D-08  .782583920093D+00
     .894069671631D-06  .165720751975D-01  .783614814281D-05  .515367706680D+04
     .000000000000D+00 -.132247805595D-06  .606680593379D+00 -.273808836937D-06
     .968537072691D+00  .235093750000D+03 -.127780182553D+01 -.824034324337D-08
    -.359300680601D-09  .100000000000D+01  .221100000000D+04  .000000000000D+00
     .240000000000D+01  .630000000000D+02 -.111758708954D-07  .220000000000D+02
    -.720000000000D+04  .400000000000D+01
8  22  5 21 23 59 44.0 -.689644366503D-04 -.147792889038D-11  .000000000000D+00
     .100000000000D+02  .781250000000D+02  .423767651624D-08  .290003651565D+00
     .413879752159D-05  .744579429738D-02  .841915607452D-05  .515376981735D+04
     .604784000000D+06  .141561031342D-06  .165995145093D+01  .298023223877D-07
     .963417252939D+00  .218906250000D+03  .167876317157D+00 -.804569227824D-08
    -.289297764699D-10  .100000000000D+01  .221000000000D+04  .000000000000D+00
     .240000000000D+01  .000000000000D+00  .512227416039D-08  .100000000000D+02
     .598260000000D+06  .400000000000D+01
17 22  5 21 23 59 44.0  .615509226918D-03  .466116034659D-11  .000000000000D+00
     .100000000000D+01  .644062500000D+02  .395909348356D-08  .281002018188D+00
     .320561230183D-05  .135096266167D-01  .888854265213D-05  .515356023598D+04
     .604784000000D+06 -.195577740669D-06  .174334472885D+01 -.108033418655D-06
     .978634321991D+00  .215562500000D+03 -.149272091263D+01 -.808283668259D-08
    -.282154610015D-10  .100000000000D+01  .221000000000D+04  .000000000000D+00
     .240000000000D+01  .000000000000D+00 -.111758708954D-07  .100000000000D+01
     .598950000000D+06  .400000000000D+01
20 22  5 21 23 59 44.0  .514424871653D-03 -.102318153949D-11  .000000000000D+00
     .190000000000D+02 -.698125000000D+02  .521914596981D-08 -.844919621631D+00
    -.355392694473D-05  .480412004981D-02  .415369868279D-05  .515358001709D+04
     .604784000000D+06  .931322574615D-07 -.266480505532D+01 -.335276126862D-07
     .943311557856D+00  .290718750000D+03 -.311962517435D+01 -.852214069565D-08
     .514307137242D-10  .100000000000D+01  .221000000000D+04  .000000000000D+00
     .240000000000D+01  .000000000000D+00 -.838190317154D-08  .190000000000D+02
     .598950000000D+06  .400000000000D+01
26 22  5 21 23 59 44.0  .207219272852D-03  .261479726760D-11  .000000000000D+00
     .300000000000D+01  .218750000000D+02  .505771067395D-08  .214265711313D+01
     .107288360596D-05  .694178545382D-02  .750273466110D-05  .515374863815D+04
     .604784000000D+06 -.121071934700D-06  .578468041207D+00  .279396772385D-07
     .937845866233D+00  .223156250000D+03  .389407334619D+00 -.825248660633D-08
    -.350014579512D-09  .100000000000D+01  .221000000000D+04  .000000000000D+00
     .240000000000D+01  .000000000000D+00  .698491930962D-08  .300000000000D+01
     .604230000000D+06  .400000000000D+01
